start=new Date('2022-08-02T00:00:00.000Z').valueOf();
sats=[{"PERIAPSIS":"546.275","ECCENTRICITY":"0.00013780","NORAD_CAT_ID":"46691","REV_AT_EPOCH":"9878","ELEMENT_SET_NO":"999","MEAN_MOTION_DDOT":"0.0000000000000","EPOCH":"2022-08-01T18:12:34.789536","OBJECT_NAME":"STARLINK-1790","SITE":"AFETR","GP_ID":"209388512","SEMIMAJOR_AXIS":"6925.364","APOAPSIS":"548.183","BSTAR":"0.00001730200000","RCS_SIZE":"LARGE","TLE_LINE1":"1 46691U 20073X   22213.75873599 -.00000024  00000-0  17302-4 0  9995","FILE":"3527139","DECAY_DATE":null,"MEAN_MOTION":"15.06394919","REF_FRAME":"TEME","LAUNCH_DATE":"2020-10-18","CLASSIFICATION_TYPE":"U","MEAN_ANOMALY":"281.6894","COUNTRY_CODE":"US","EPHEMERIS_TYPE":"0","PERIOD":"95.592","TIME_SYSTEM":"UTC","OBJECT_TYPE":"PAYLOAD","RA_OF_ASC_NODE":"29.0658","CENTER_NAME":"EARTH","MEAN_ELEMENT_THEORY":"SGP4","OBJECT_ID":"2020-073X","MEAN_MOTION_DOT":"-0.00000024","INCLINATION":"53.0550","ARG_OF_PERICENTER":"78.4250","TLE_LINE2":"2 46691  53.0550  29.0658 0001378  78.4250 281.6894 15.06394919 98788"},{"EPHEMERIS_TYPE":"0","TIME_SYSTEM":"UTC","PERIOD":"95.592","RA_OF_ASC_NODE":"43.8199","OBJECT_TYPE":"PAYLOAD","REF_FRAME":"TEME","LAUNCH_DATE":"2020-10-18","MEAN_MOTION":"15.06403980","DECAY_DATE":null,"CLASSIFICATION_TYPE":"U","COUNTRY_CODE":"US","MEAN_ANOMALY":"263.3993","ARG_OF_PERICENTER":"96.7155","TLE_LINE2":"2 46692  53.0556  43.8199 0001394  96.7155 263.3993 15.06403980 98588","OBJECT_ID":"2020-073Y","CENTER_NAME":"EARTH","MEAN_ELEMENT_THEORY":"SGP4","MEAN_MOTION_DOT":"0.00000820","INCLINATION":"53.0556","ELEMENT_SET_NO":"999","MEAN_MOTION_DDOT":"0.0000000000000","OBJECT_NAME":"STARLINK-1791","EPOCH":"2022-08-01T19:27:32.746752","SITE":"AFETR","GP_ID":"209388763","PERIAPSIS":"546.236","NORAD_CAT_ID":"46692","ECCENTRICITY":"0.00013940","REV_AT_EPOCH":"9858","RCS_SIZE":"LARGE","BSTAR":"0.00007391800000","TLE_LINE1":"1 46692U 20073Y   22213.81079568  .00000820  00000-0  73918-4 0  9995","FILE":"3527139","APOAPSIS":"548.167","SEMIMAJOR_AXIS":"6925.336"},{"CENTER_NAME":"EARTH","MEAN_ELEMENT_THEORY":"SGP4","OBJECT_ID":"2020-073Z","MEAN_MOTION_DOT":"0.00000340","INCLINATION":"53.0563","ARG_OF_PERICENTER":"96.0793","TLE_LINE2":"2 46693  53.0563  29.0579 0001496  96.0793 264.0367 15.06397054 98788","MEAN_MOTION":"15.06397054","DECAY_DATE":null,"REF_FRAME":"TEME","LAUNCH_DATE":"2020-10-18","CLASSIFICATION_TYPE":"U","COUNTRY_CODE":"US","MEAN_ANOMALY":"264.0367","EPHEMERIS_TYPE":"0","PERIOD":"95.592","TIME_SYSTEM":"UTC","RA_OF_ASC_NODE":"29.0579","OBJECT_TYPE":"PAYLOAD","SEMIMAJOR_AXIS":"6925.358","APOAPSIS":"548.259","BSTAR":"0.00004173700000","RCS_SIZE":"LARGE","TLE_LINE1":"1 46693U 20073Z   22213.76241825  .00000340  00000-0  41737-4 0  9998","FILE":"3527139","PERIAPSIS":"546.187","ECCENTRICITY":"0.00014960","NORAD_CAT_ID":"46693","REV_AT_EPOCH":"9878","MEAN_MOTION_DDOT":"0.0000000000000","ELEMENT_SET_NO":"999","OBJECT_NAME":"STARLINK-1792","EPOCH":"2022-08-01T18:17:52.936800","SITE":"AFETR","GP_ID":"209389014"},{"COUNTRY_CODE":"US","MEAN_ANOMALY":"238.7897","CLASSIFICATION_TYPE":"U","LAUNCH_DATE":"2020-10-18","REF_FRAME":"TEME","MEAN_MOTION":"15.06402959","DECAY_DATE":null,"OBJECT_TYPE":"PAYLOAD","RA_OF_ASC_NODE":"8.6560","PERIOD":"95.592","TIME_SYSTEM":"UTC","EPHEMERIS_TYPE":"0","INCLINATION":"53.0552","MEAN_MOTION_DOT":"0.00000185","OBJECT_ID":"2020-073AA","CENTER_NAME":"EARTH","MEAN_ELEMENT_THEORY":"SGP4","TLE_LINE2":"2 46694  53.0552   8.6560 0001508 121.3240 238.7897 15.06402959 99084","ARG_OF_PERICENTER":"121.3240","REV_AT_EPOCH":"9908","NORAD_CAT_ID":"46694","ECCENTRICITY":"0.00015080","PERIAPSIS":"546.160","SITE":"AFETR","GP_ID":"209388003","EPOCH":"2022-08-01T20:27:54.833472","OBJECT_NAME":"STARLINK-1793","MEAN_MOTION_DDOT":"0.0000000000000","ELEMENT_SET_NO":"999","APOAPSIS":"548.249","SEMIMAJOR_AXIS":"6925.339","TLE_LINE1":"1 46694U 20073AA  22213.85271798  .00000185  00000-0  31301-4 0  9994","FILE":"3527139","RCS_SIZE":"LARGE","BSTAR":"0.00003130100000"},{"REV_AT_EPOCH":"9908","ECCENTRICITY":"0.00014410","NORAD_CAT_ID":"46696","PERIAPSIS":"546.228","GP_ID":"209388013","SITE":"AFETR","OBJECT_NAME":"STARLINK-1795","EPOCH":"2022-08-01T20:54:27.821376","MEAN_MOTION_DDOT":"0.0000000000000","ELEMENT_SET_NO":"999","SEMIMAJOR_AXIS":"6925.361","APOAPSIS":"548.224","FILE":"3527139","TLE_LINE1":"1 46696U 20073AC  22213.87115534  .00000300  00000-0  39059-4 0  9990","BSTAR":"0.00003905900000","RCS_SIZE":"LARGE","COUNTRY_CODE":"US","MEAN_ANOMALY":"284.8684","CLASSIFICATION_TYPE":"U","DECAY_DATE":null,"MEAN_MOTION":"15.06395943","REF_FRAME":"TEME","LAUNCH_DATE":"2020-10-18","OBJECT_TYPE":"PAYLOAD","RA_OF_ASC_NODE":"8.5692","PERIOD":"95.592","TIME_SYSTEM":"UTC","EPHEMERIS_TYPE":"0","INCLINATION":"53.0550","MEAN_MOTION_DOT":"0.00000300","CENTER_NAME":"EARTH","MEAN_ELEMENT_THEORY":"SGP4","OBJECT_ID":"2020-073AC","TLE_LINE2":"2 46696  53.0550   8.5692 0001441  75.2465 284.8684 15.06395943 99081","ARG_OF_PERICENTER":"75.2465"},{"MEAN_ANOMALY":"263.4055","COUNTRY_CODE":"US","CLASSIFICATION_TYPE":"U","DECAY_DATE":null,"MEAN_MOTION":"15.06398947","REF_FRAME":"TEME","LAUNCH_DATE":"2020-10-18","OBJECT_TYPE":"PAYLOAD","RA_OF_ASC_NODE":"28.5905","PERIOD":"95.592","TIME_SYSTEM":"UTC","EPHEMERIS_TYPE":"0","INCLINATION":"53.0563","MEAN_MOTION_DOT":"0.00000151","CENTER_NAME":"EARTH","MEAN_ELEMENT_THEORY":"SGP4","OBJECT_ID":"2020-073AE","TLE_LINE2":"2 46698  53.0563  28.5905 0001397  96.7093 263.4055 15.06398947 98802","ARG_OF_PERICENTER":"96.7093","REV_AT_EPOCH":"9880","ECCENTRICITY":"0.00013970","NORAD_CAT_ID":"46698","PERIAPSIS":"546.249","SITE":"AFETR","GP_ID":"209388264","OBJECT_NAME":"STARLINK-1797","EPOCH":"2022-08-01T20:39:49.631040","ELEMENT_SET_NO":"999","MEAN_MOTION_DDOT":"0.0000000000000","SEMIMAJOR_AXIS":"6925.352","APOAPSIS":"548.184","FILE":"3527139","TLE_LINE1":"1 46698U 20073AE  22213.86099110  .00000151  00000-0  29027-4 0  9990","BSTAR":"0.00002902700000","RCS_SIZE":"LARGE"},{"SEMIMAJOR_AXIS":"6925.362","APOAPSIS":"548.282","TLE_LINE1":"1 46699U 20073AF  22213.86562646 -.00000389  00000-0 -72147-5 0  9997","FILE":"3527044","BSTAR":"-0.00000721470000","RCS_SIZE":"LARGE","ECCENTRICITY":"0.00015240","NORAD_CAT_ID":"46699","PERIAPSIS":"546.171","REV_AT_EPOCH":"9924","MEAN_MOTION_DDOT":"0.0000000000000","ELEMENT_SET_NO":"999","GP_ID":"209365346","SITE":"AFETR","EPOCH":"2022-08-01T20:46:30.126144","OBJECT_NAME":"STARLINK-1799","MEAN_ELEMENT_THEORY":"SGP4","CENTER_NAME":"EARTH","OBJECT_ID":"2020-073AF","INCLINATION":"53.0547","MEAN_MOTION_DOT":"-0.00000389","TLE_LINE2":"2 46699  53.0547  28.5880 0001524  92.2760 267.8404 15.06395759 99244","ARG_OF_PERICENTER":"92.2760","MEAN_MOTION":"15.06395759","DECAY_DATE":null,"REF_FRAME":"TEME","LAUNCH_DATE":"2020-10-18","MEAN_ANOMALY":"267.8404","COUNTRY_CODE":"US","CLASSIFICATION_TYPE":"U","EPHEMERIS_TYPE":"0","RA_OF_ASC_NODE":"28.5880","OBJECT_TYPE":"PAYLOAD","PERIOD":"95.592","TIME_SYSTEM":"UTC"},{"TLE_LINE2":"2 46700  53.0551  43.8669 0001392  79.8391 280.2755 15.06405572 98580","ARG_OF_PERICENTER":"79.8391","OBJECT_ID":"2020-073AG","CENTER_NAME":"EARTH","MEAN_ELEMENT_THEORY":"SGP4","INCLINATION":"53.0551","MEAN_MOTION_DOT":"0.00005827","EPHEMERIS_TYPE":"0","OBJECT_TYPE":"PAYLOAD","RA_OF_ASC_NODE":"43.8669","PERIOD":"95.592","TIME_SYSTEM":"UTC","REF_FRAME":"TEME","LAUNCH_DATE":"2020-10-18","DECAY_DATE":null,"MEAN_MOTION":"15.06405572","MEAN_ANOMALY":"280.2755","COUNTRY_CODE":"US","CLASSIFICATION_TYPE":"U","TLE_LINE1":"1 46700U 20073AG  22213.80343102  .00005827  00000-0  40972-3 0  9997","FILE":"3527139","RCS_SIZE":"LARGE","BSTAR":"0.00040972000000","APOAPSIS":"548.160","SEMIMAJOR_AXIS":"6925.331","ELEMENT_SET_NO":"999","MEAN_MOTION_DDOT":"0.0000000000000","SITE":"AFETR","GP_ID":"209388503","EPOCH":"2022-08-01T19:16:56.440128","OBJECT_NAME":"STARLINK-1800","NORAD_CAT_ID":"46700","ECCENTRICITY":"0.00013920","PERIAPSIS":"546.232","REV_AT_EPOCH":"9858"},{"MEAN_MOTION_DOT":"0.00002201","INCLINATION":"53.0550","OBJECT_ID":"2020-073AH","CENTER_NAME":"EARTH","MEAN_ELEMENT_THEORY":"SGP4","ARG_OF_PERICENTER":"88.4072","TLE_LINE2":"2 46701  53.0550  28.4324 0001371  88.4072 271.7074 15.06401832 98816","CLASSIFICATION_TYPE":"U","COUNTRY_CODE":"US","MEAN_ANOMALY":"271.7074","LAUNCH_DATE":"2020-10-18","REF_FRAME":"TEME","MEAN_MOTION":"15.06401832","DECAY_DATE":null,"PERIOD":"95.592","TIME_SYSTEM":"UTC","OBJECT_TYPE":"PAYLOAD","RA_OF_ASC_NODE":"28.4324","EPHEMERIS_TYPE":"0","APOAPSIS":"548.157","SEMIMAJOR_AXIS":"6925.343","RCS_SIZE":"LARGE","BSTAR":"0.00016657000000","TLE_LINE1":"1 46701U 20073AH  22213.90247952  .00002201  00000-0  16657-3 0  9991","FILE":"3527139","REV_AT_EPOCH":"9881","PERIAPSIS":"546.258","NORAD_CAT_ID":"46701","ECCENTRICITY":"0.00013710","OBJECT_NAME":"STARLINK-1801","EPOCH":"2022-08-01T21:39:34.230528","GP_ID":"209388513","SITE":"AFETR","MEAN_MOTION_DDOT":"0.0000000000000","ELEMENT_SET_NO":"999"},{"LAUNCH_DATE":"2020-10-18","REF_FRAME":"TEME","MEAN_MOTION":"15.06404138","DECAY_DATE":null,"MEAN_ANOMALY":"288.1482","COUNTRY_CODE":"US","CLASSIFICATION_TYPE":"U","EPHEMERIS_TYPE":"0","OBJECT_TYPE":"PAYLOAD","RA_OF_ASC_NODE":"8.6699","PERIOD":"95.592","TIME_SYSTEM":"UTC","OBJECT_ID":"2020-073AJ","CENTER_NAME":"EARTH","MEAN_ELEMENT_THEORY":"SGP4","INCLINATION":"53.0566","MEAN_MOTION_DOT":"0.00000506","TLE_LINE2":"2 46702  53.0566   8.6699 0001385  71.9658 288.1482 15.06404138 99088","ARG_OF_PERICENTER":"71.9658","NORAD_CAT_ID":"46702","ECCENTRICITY":"0.00013850","PERIAPSIS":"546.242","REV_AT_EPOCH":"9908","ELEMENT_SET_NO":"999","MEAN_MOTION_DDOT":"0.0000000000000","SITE":"AFETR","GP_ID":"209388764","EPOCH":"2022-08-01T20:22:36.425280","OBJECT_NAME":"STARLINK-1802","APOAPSIS":"548.160","SEMIMAJOR_AXIS":"6925.336","FILE":"3527139","TLE_LINE1":"1 46702U 20073AJ  22213.84903270  .00000506  00000-0  52887-4 0  9999","RCS_SIZE":"LARGE","BSTAR":"0.00005288700000"}];
